IRIDIUM 106             
1 41917U 17003A   25351.55780398 -.00000011  00000+0 -10955-4 0  9991
2 41917  86.3993 164.4424 0002275  98.0709 262.0745 14.34217554467173
IRIDIUM 103             
1 41918U 17003B   25351.54511959  .00000071  00000+0  18309-4 0  9991
2 41918  86.3987 164.3480 0001668 100.5514 259.5870 14.34214525467193
IRIDIUM 109             
1 41919U 17003C   25351.55146498  .00000054  00000+0  12330-4 0  9994
2 41919  86.3988 164.4018 0001922  93.5879 266.5537 14.34220344467162
IRIDIUM 102             
1 41920U 17003D   25351.58951494 -.00000039  00000+0 -21003-4 0  9991
2 41920  86.3991 164.3135 0001896  88.5874 271.5539 14.34216994467250
IRIDIUM 105             
1 41921U 17003E   25351.63002188  .00000290  00000+0  96496-4 0  9990
2 41921  86.3982 132.7888 0001928  95.2489 264.8927 14.34215096469113
IRIDIUM 104             
1 41922U 17003F   25351.53243036  .00000030  00000+0  36956-5 0  9997
2 41922  86.3984 164.3769 0001654  89.1626 270.9759 14.34218137467237
IRIDIUM 114             
1 41923U 17003G   25351.53876640  .00000005  00000+0 -53463-5 0  9996
2 41923  86.3990 164.3583 0001694  92.5526 267.5864 14.34216608467218
IRIDIUM 108             
1 41924U 17003H   25351.63683566  .00000273  00000+0  90416-4 0  9995
2 41924  86.3977 132.6757 0002095  89.8184 270.3252 14.34217739469086
